[{"OBJECT_NAME":"GEOSCAN 5 (RS92S5)","OBJECT_ID":"2025-155R","EPOCH":"2026-03-09T22:01:07.273920","MEAN_MOTION":15.30265233,"ECCENTRICITY":0.00070849,"INCLINATION":97.4462,"RA_OF_ASC_NODE":37.7456,"ARG_OF_PERICENTER":154.5846,"MEAN_ANOMALY":205.5745,"EPHEMERIS_TYPE":0,"CLASSIFICATION_TYPE":"U","NORAD_CAT_ID":64891,"ELEMENT_SET_NO":999,"REV_AT_EPOCH":6562,"BSTAR":0.00068639307,"MEAN_MOTION_DOT":0.00020065,"MEAN_MOTION_DDOT":0},{"OBJECT_NAME":"STARLINK-35612","OBJECT_ID":"2025-237Q","EPOCH":"2026-03-09T22:09:52.382880","MEAN_MOTION":15.30214199,"ECCENTRICITY":0.00011536,"INCLINATION":53.1611,"RA_OF_ASC_NODE":38.7325,"ARG_OF_PERICENTER":90.1189,"MEAN_ANOMALY":269.9944,"EPHEMERIS_TYPE":0,"CLASSIFICATION_TYPE":"U","NORAD_CAT_ID":66128,"ELEMENT_SET_NO":999,"REV_AT_EPOCH":2264,"BSTAR":0.001226028,"MEAN_MOTION_DOT":0.00036145,"MEAN_MOTION_DDOT":0}]
